ONEWEB-0197             
1 48236U 21031AC  26064.70623302 -.00000168  00000+0 -48686-3 0  9992
2 48236  87.8996 310.3360 0001533  68.1554 291.9738 13.14501941234590
ONEWEB-0194             
1 48237U 21031AD  26064.68575973  .00000063  00000+0  13674-3 0  9991
2 48237  87.8997 310.3577 0001478  89.9380 270.1919 13.14501930234765
ONEWEB-0193             
1 48238U 21031AE  26064.70161198 -.00000140  00000+0 -41263-3 0  9998
2 48238  87.8997 310.3467 0001311  94.3809 265.7471 13.14502550234713
ONEWEB-0191             
1 48239U 21031AF  26064.71271229 -.00000097  00000+0 -29516-3 0  9995
2 48239  87.8999 310.3395 0001565  78.8836 281.2469 13.14502386234575
ONEWEB-0195             
1 48240U 21031AG  26064.68972234  .00000015  00000+0  72876-5 0  9994
2 48240  87.8996 310.3413 0002036  84.2560 275.8802 13.14502260234553
ONEWEB-0201             
1 48241U 21031AH  26064.67797027  .00000145  00000+0  35549-3 0  9997
2 48241  87.8984 310.3730 0001799  72.1262 288.0063 13.14501686234784
ONEWEB-0207             
1 48242U 21031AJ  26064.65801765  .00000231  00000+0  58725-3 0  9998
2 48242  87.8996 310.3478 0001716  71.5064 288.6252 13.14503887234690
ONEWEB-0208             
1 48243U 21031AK  26064.71588302 -.00000093  00000+0 -28611-3 0  9994
2 48243  87.8998 310.3487 0001885  83.8784 276.2561 13.14502743234714
ONEWEB-0200             
1 48244U 21031AL  26064.67941484  .00000157  00000+0  38823-3 0  9999
2 48244  87.8994 310.3455 0001736  78.4682 281.6643 13.14501646234631
ONEWEB-0217             
1 48245U 21031AM  26064.69527339 -.00000088  00000+0 -27300-3 0  9994
2 48245  87.8996 310.3420 0001981  83.8414 276.2941 13.14502192234583
ONEWEB-0211             
1 48767U 21045A   26064.65115424  .00000150  00000+0  36151-3 0  9994
2 48767  87.8944 279.7770 0001986  97.6015 262.5342 13.16143908230820
ONEWEB-0223             
1 48768U 21045B   26064.60318402  .00000056  00000+0  11349-3 0  9998
2 48768  87.8952 279.8674 0001808 102.6010 257.5322 13.15547771230781
ONEWEB-0230             
1 48769U 21045C   26064.65072201  .00000119  00000+0  28307-3 0  9990
2 48769  87.8942 279.8810 0001454  84.4001 275.7295 13.15547312231050
ONEWEB-0237             
1 48770U 21045D   26064.56356773  .00000057  00000+0  11820-3 0  9994
2 48770  87.8939 279.8996 0001598  97.3408 262.7904 13.15547547230766
ONEWEB-0235             
1 48771U 21045E   26064.61427252 -.00000018  00000+0 -81905-4 0  9993
2 48771  87.8954 279.8658 0001739 103.8754 256.2570 13.15548080230763
ONEWEB-0242             
1 48772U 21045F   26064.60793395 -.00000030  00000+0 -11342-3 0  9998
2 48772  87.8950 279.8627 0001486  94.2836 265.8465 13.15547538230800
ONEWEB-0241             
1 48773U 21045G   26064.59526263  .00000137  00000+0  33038-3 0  9997
2 48773  87.8942 279.8949 0001911  98.4896 261.6451 13.15547937230716
