[{"OBJECT_NAME":"ONEWEB-0197","OBJECT_ID":"2021-031AC","EPOCH":"2026-03-05T16:56:58.532928","MEAN_MOTION":13.14501941,"ECCENTRICITY":0.0001533,"INCLINATION":87.8996,"RA_OF_ASC_NODE":310.336,"ARG_OF_PERICENTER":68.1554,"MEAN_ANOMALY":291.9738,"EPHEMERIS_TYPE":0,"CLASSIFICATION_TYPE":"U","NORAD_CAT_ID":48236,"ELEMENT_SET_NO":999,"REV_AT_EPOCH":23459,"BSTAR":-0.00048686,"MEAN_MOTION_DOT":-1.68e-6,"MEAN_MOTION_DDOT":0},{"OBJECT_NAME":"ONEWEB-0194","OBJECT_ID":"2021-031AD","EPOCH":"2026-03-05T16:27:29.640672","MEAN_MOTION":13.1450193,"ECCENTRICITY":0.0001478,"INCLINATION":87.8997,"RA_OF_ASC_NODE":310.3577,"ARG_OF_PERICENTER":89.938,"MEAN_ANOMALY":270.1919,"EPHEMERIS_TYPE":0,"CLASSIFICATION_TYPE":"U","NORAD_CAT_ID":48237,"ELEMENT_SET_NO":999,"REV_AT_EPOCH":23476,"BSTAR":0.00013674,"MEAN_MOTION_DOT":6.3e-7,"MEAN_MOTION_DDOT":0},{"OBJECT_NAME":"ONEWEB-0193","OBJECT_ID":"2021-031AE","EPOCH":"2026-03-05T16:50:19.275072","MEAN_MOTION":13.1450255,"ECCENTRICITY":0.0001311,"INCLINATION":87.8997,"RA_OF_ASC_NODE":310.3467,"ARG_OF_PERICENTER":94.3809,"MEAN_ANOMALY":265.7471,"EPHEMERIS_TYPE":0,"CLASSIFICATION_TYPE":"U","NORAD_CAT_ID":48238,"ELEMENT_SET_NO":999,"REV_AT_EPOCH":23471,"BSTAR":-0.00041263,"MEAN_MOTION_DOT":-1.4e-6,"MEAN_MOTION_DDOT":0},{"OBJECT_NAME":"ONEWEB-0191","OBJECT_ID":"2021-031AF","EPOCH":"2026-03-05T17:06:18.341856","MEAN_MOTION":13.14502386,"ECCENTRICITY":0.0001565,"INCLINATION":87.8999,"RA_OF_ASC_NODE":310.3395,"ARG_OF_PERICENTER":78.8836,"MEAN_ANOMALY":281.2469,"EPHEMERIS_TYPE":0,"CLASSIFICATION_TYPE":"U","NORAD_CAT_ID":48239,"ELEMENT_SET_NO":999,"REV_AT_EPOCH":23457,"BSTAR":-0.00029516,"MEAN_MOTION_DOT":-9.7e-7,"MEAN_MOTION_DDOT":0},{"OBJECT_NAME":"ONEWEB-0195","OBJECT_ID":"2021-031AG","EPOCH":"2026-03-05T16:33:12.010176","MEAN_MOTION":13.1450226,"ECCENTRICITY":0.0002036,"INCLINATION":87.8996,"RA_OF_ASC_NODE":310.3413,"ARG_OF_PERICENTER":84.256,"MEAN_ANOMALY":275.8802,"EPHEMERIS_TYPE":0,"CLASSIFICATION_TYPE":"U","NORAD_CAT_ID":48240,"ELEMENT_SET_NO":999,"REV_AT_EPOCH":23455,"BSTAR":7.2876e-6,"MEAN_MOTION_DOT":1.5e-7,"MEAN_MOTION_DDOT":0},{"OBJECT_NAME":"ONEWEB-0201","OBJECT_ID":"2021-031AH","EPOCH":"2026-03-05T16:16:16.631328","MEAN_MOTION":13.14501686,"ECCENTRICITY":0.0001799,"INCLINATION":87.8984,"RA_OF_ASC_NODE":310.373,"ARG_OF_PERICENTER":72.1262,"MEAN_ANOMALY":288.0063,"EPHEMERIS_TYPE":0,"CLASSIFICATION_TYPE":"U","NORAD_CAT_ID":48241,"ELEMENT_SET_NO":999,"REV_AT_EPOCH":23478,"BSTAR":0.00035549,"MEAN_MOTION_DOT":1.45e-6,"MEAN_MOTION_DDOT":0},{"OBJECT_NAME":"ONEWEB-0207","OBJECT_ID":"2021-031AJ","EPOCH":"2026-03-05T15:47:32.724960","MEAN_MOTION":13.14503887,"ECCENTRICITY":0.0001716,"INCLINATION":87.8996,"RA_OF_ASC_NODE":310.3478,"ARG_OF_PERICENTER":71.5064,"MEAN_ANOMALY":288.6252,"EPHEMERIS_TYPE":0,"CLASSIFICATION_TYPE":"U","NORAD_CAT_ID":48242,"ELEMENT_SET_NO":999,"REV_AT_EPOCH":23469,"BSTAR":0.00058725,"MEAN_MOTION_DOT":2.31e-6,"MEAN_MOTION_DDOT":0},{"OBJECT_NAME":"ONEWEB-0208","OBJECT_ID":"2021-031AK","EPOCH":"2026-03-05T17:10:52.292928","MEAN_MOTION":13.14502743,"ECCENTRICITY":0.0001885,"INCLINATION":87.8998,"RA_OF_ASC_NODE":310.3487,"ARG_OF_PERICENTER":83.8784,"MEAN_ANOMALY":276.2561,"EPHEMERIS_TYPE":0,"CLASSIFICATION_TYPE":"U","NORAD_CAT_ID":48243,"ELEMENT_SET_NO":999,"REV_AT_EPOCH":23471,"BSTAR":-0.00028611,"MEAN_MOTION_DOT":-9.3e-7,"MEAN_MOTION_DDOT":0},{"OBJECT_NAME":"ONEWEB-0200","OBJECT_ID":"2021-031AL","EPOCH":"2026-03-05T16:18:21.442176","MEAN_MOTION":13.14501646,"ECCENTRICITY":0.0001736,"INCLINATION":87.8994,"RA_OF_ASC_NODE":310.3455,"ARG_OF_PERICENTER":78.4682,"MEAN_ANOMALY":281.6643,"EPHEMERIS_TYPE":0,"CLASSIFICATION_TYPE":"U","NORAD_CAT_ID":48244,"ELEMENT_SET_NO":999,"REV_AT_EPOCH":23463,"BSTAR":0.00038823,"MEAN_MOTION_DOT":1.57e-6,"MEAN_MOTION_DDOT":0},{"OBJECT_NAME":"ONEWEB-0217","OBJECT_ID":"2021-031AM","EPOCH":"2026-03-05T16:41:11.620896","MEAN_MOTION":13.14502192,"ECCENTRICITY":0.0001981,"INCLINATION":87.8996,"RA_OF_ASC_NODE":310.342,"ARG_OF_PERICENTER":83.8414,"MEAN_ANOMALY":276.2941,"EPHEMERIS_TYPE":0,"CLASSIFICATION_TYPE":"U","NORAD_CAT_ID":48245,"ELEMENT_SET_NO":999,"REV_AT_EPOCH":23458,"BSTAR":-0.000273,"MEAN_MOTION_DOT":-8.8e-7,"MEAN_MOTION_DDOT":0},{"OBJECT_NAME":"ONEWEB-0211","OBJECT_ID":"2021-045A","EPOCH":"2026-03-05T15:37:39.726336","MEAN_MOTION":13.16143908,"ECCENTRICITY":0.0001986,"INCLINATION":87.8944,"RA_OF_ASC_NODE":279.777,"ARG_OF_PERICENTER":97.6015,"MEAN_ANOMALY":262.5342,"EPHEMERIS_TYPE":0,"CLASSIFICATION_TYPE":"U","NORAD_CAT_ID":48767,"ELEMENT_SET_NO":999,"REV_AT_EPOCH":23082,"BSTAR":0.00036151,"MEAN_MOTION_DOT":1.5e-6,"MEAN_MOTION_DDOT":0},{"OBJECT_NAME":"ONEWEB-0223","OBJECT_ID":"2021-045B","EPOCH":"2026-03-05T14:28:35.099328","MEAN_MOTION":13.15547771,"ECCENTRICITY":0.0001808,"INCLINATION":87.8952,"RA_OF_ASC_NODE":279.8674,"ARG_OF_PERICENTER":102.601,"MEAN_ANOMALY":257.5322,"EPHEMERIS_TYPE":0,"CLASSIFICATION_TYPE":"U","NORAD_CAT_ID":48768,"ELEMENT_SET_NO":999,"REV_AT_EPOCH":23078,"BSTAR":0.00011349,"MEAN_MOTION_DOT":5.6e-7,"MEAN_MOTION_DDOT":0},{"OBJECT_NAME":"ONEWEB-0230","OBJECT_ID":"2021-045C","EPOCH":"2026-03-05T15:37:02.381664","MEAN_MOTION":13.15547312,"ECCENTRICITY":0.0001454,"INCLINATION":87.8942,"RA_OF_ASC_NODE":279.881,"ARG_OF_PERICENTER":84.4001,"MEAN_ANOMALY":275.7295,"EPHEMERIS_TYPE":0,"CLASSIFICATION_TYPE":"U","NORAD_CAT_ID":48769,"ELEMENT_SET_NO":999,"REV_AT_EPOCH":23105,"BSTAR":0.00028307,"MEAN_MOTION_DOT":1.19e-6,"MEAN_MOTION_DDOT":0},{"OBJECT_NAME":"ONEWEB-0237","OBJECT_ID":"2021-045D","EPOCH":"2026-03-05T13:31:32.251872","MEAN_MOTION":13.15547547,"ECCENTRICITY":0.0001598,"INCLINATION":87.8939,"RA_OF_ASC_NODE":279.8996,"ARG_OF_PERICENTER":97.3408,"MEAN_ANOMALY":262.7904,"EPHEMERIS_TYPE":0,"CLASSIFICATION_TYPE":"U","NORAD_CAT_ID":48770,"ELEMENT_SET_NO":999,"REV_AT_EPOCH":23076,"BSTAR":0.0001182,"MEAN_MOTION_DOT":5.7e-7,"MEAN_MOTION_DDOT":0},{"OBJECT_NAME":"ONEWEB-0235","OBJECT_ID":"2021-045E","EPOCH":"2026-03-05T14:44:33.145728","MEAN_MOTION":13.1554808,"ECCENTRICITY":0.0001739,"INCLINATION":87.8954,"RA_OF_ASC_NODE":279.8658,"ARG_OF_PERICENTER":103.8754,"MEAN_ANOMALY":256.257,"EPHEMERIS_TYPE":0,"CLASSIFICATION_TYPE":"U","NORAD_CAT_ID":48771,"ELEMENT_SET_NO":999,"REV_AT_EPOCH":23076,"BSTAR":-8.1905e-5,"MEAN_MOTION_DOT":-1.8e-7,"MEAN_MOTION_DDOT":0},{"OBJECT_NAME":"ONEWEB-0242","OBJECT_ID":"2021-045F","EPOCH":"2026-03-05T14:35:25.493280","MEAN_MOTION":13.15547538,"ECCENTRICITY":0.0001486,"INCLINATION":87.895,"RA_OF_ASC_NODE":279.8627,"ARG_OF_PERICENTER":94.2836,"MEAN_ANOMALY":265.8465,"EPHEMERIS_TYPE":0,"CLASSIFICATION_TYPE":"U","NORAD_CAT_ID":48772,"ELEMENT_SET_NO":999,"REV_AT_EPOCH":23080,"BSTAR":-0.00011342,"MEAN_MOTION_DOT":-3.0e-7,"MEAN_MOTION_DDOT":0},{"OBJECT_NAME":"ONEWEB-0241","OBJECT_ID":"2021-045G","EPOCH":"2026-03-05T14:17:10.691232","MEAN_MOTION":13.15547937,"ECCENTRICITY":0.0001911,"INCLINATION":87.8942,"RA_OF_ASC_NODE":279.8949,"ARG_OF_PERICENTER":98.4896,"MEAN_ANOMALY":261.6451,"EPHEMERIS_TYPE":0,"CLASSIFICATION_TYPE":"U","NORAD_CAT_ID":48773,"ELEMENT_SET_NO":999,"REV_AT_EPOCH":23071,"BSTAR":0.00033038,"MEAN_MOTION_DOT":1.37e-6,"MEAN_MOTION_DDOT":0}]
